[{"OBJECT_NAME":"NUSAT-41 (C PAYNE-G)","OBJECT_ID":"2023-084N","EPOCH":"2026-03-09T21:55:54.837696","MEAN_MOTION":15.29680045,"ECCENTRICITY":0.00062175,"INCLINATION":97.5351,"RA_OF_ASC_NODE":204.1011,"ARG_OF_PERICENTER":322.2064,"MEAN_ANOMALY":37.8738,"EPHEMERIS_TYPE":0,"CLASSIFICATION_TYPE":"U","NORAD_CAT_ID":56944,"ELEMENT_SET_NO":999,"REV_AT_EPOCH":15260,"BSTAR":0.00059912824,"MEAN_MOTION_DOT":0.0001718,"MEAN_MOTION_DDOT":0},{"OBJECT_NAME":"STARLINK-35812","OBJECT_ID":"2025-268T","EPOCH":"2026-03-09T03:24:28.051776","MEAN_MOTION":15.27584612,"ECCENTRICITY":0.00012752,"INCLINATION":42.9983,"RA_OF_ASC_NODE":350.3598,"ARG_OF_PERICENTER":269.6091,"MEAN_ANOMALY":90.4615,"EPHEMERIS_TYPE":0,"CLASSIFICATION_TYPE":"U","NORAD_CAT_ID":66574,"ELEMENT_SET_NO":999,"REV_AT_EPOCH":1787,"BSTAR":0.0010661444,"MEAN_MOTION_DOT":0.00029196,"MEAN_MOTION_DDOT":0}]
